start=new Date('2022-01-19T00:00:00.000Z').valueOf();
sats=[{"RCS_SIZE":"LARGE","CENTER_NAME":"EARTH","MEAN_MOTION_DDOT":"0.0000000000000","TIME_SYSTEM":"UTC","REF_FRAME":"TEME","TLE_LINE1":"1 44963U 20001BB  22018.87126944  .00010953  00000-0  69188-3 0  9996","PERIOD":"95.393","ARG_OF_PERICENTER":"84.0536","APOAPSIS":"538.733","INCLINATION":"52.9971","MEAN_MOTION_DOT":"0.00010953","REV_AT_EPOCH":"11348","EPOCH":"2022-01-18T20:54:37.679616","MEAN_ANOMALY":"276.0638","DECAY_DATE":null,"MEAN_MOTION":"15.09537424","EPHEMERIS_TYPE":"0","OBJECT_NAME":"STARLINK-1085","OBJECT_TYPE":"PAYLOAD","RA_OF_ASC_NODE":"243.3821","ECCENTRICITY":"0.00016180","LAUNCH_DATE":"2020-01-07","FILE":"3276875","NORAD_CAT_ID":"44963","CLASSIFICATION_TYPE":"U","SITE":"AFETR","GP_ID":"194151999","MEAN_ELEMENT_THEORY":"SGP4","COUNTRY_CODE":"US","SEMIMAJOR_AXIS":"6915.749","OBJECT_ID":"2020-001BB","ELEMENT_SET_NO":"999","BSTAR":"0.00069188000000","PERIAPSIS":"536.495","TLE_LINE2":"2 44963  52.9971 243.3821 0001618  84.0536 276.0638 15.09537424113485"},{"FILE":"3276875","CLASSIFICATION_TYPE":"U","NORAD_CAT_ID":"44964","LAUNCH_DATE":"2020-01-07","ECCENTRICITY":"0.00018620","RA_OF_ASC_NODE":"248.9616","ELEMENT_SET_NO":"999","OBJECT_ID":"2020-001BC","TLE_LINE2":"2 44964  53.0532 248.9616 0001862  82.4612 277.6588 15.06392138112693","PERIAPSIS":"545.948","BSTAR":"0.00003474000000","COUNTRY_CODE":"US","MEAN_ELEMENT_THEORY":"SGP4","SITE":"AFETR","GP_ID":"194152250","SEMIMAJOR_AXIS":"6925.373","TLE_LINE1":"1 44964U 20001BC  22018.86792026  .00000236  00000-0  34740-4 0  9996","REF_FRAME":"TEME","CENTER_NAME":"EARTH","MEAN_MOTION_DDOT":"0.0000000000000","TIME_SYSTEM":"UTC","RCS_SIZE":"LARGE","MEAN_ANOMALY":"277.6588","DECAY_DATE":null,"OBJECT_TYPE":"PAYLOAD","OBJECT_NAME":"STARLINK-1086","MEAN_MOTION":"15.06392138","EPHEMERIS_TYPE":"0","MEAN_MOTION_DOT":"0.00000236","INCLINATION":"53.0532","APOAPSIS":"548.527","PERIOD":"95.593","ARG_OF_PERICENTER":"82.4612","EPOCH":"2022-01-18T20:49:48.310464","REV_AT_EPOCH":"11269"},{"REV_AT_EPOCH":"11269","EPOCH":"2022-01-18T21:21:39.662496","APOAPSIS":"548.623","ARG_OF_PERICENTER":"71.4808","PERIOD":"95.593","MEAN_MOTION_DOT":"-0.00000067","INCLINATION":"53.0539","OBJECT_NAME":"STARLINK-1088","EPHEMERIS_TYPE":"0","MEAN_MOTION":"15.06388069","OBJECT_TYPE":"PAYLOAD","MEAN_ANOMALY":"288.6396","DECAY_DATE":null,"RCS_SIZE":"LARGE","REF_FRAME":"TEME","MEAN_MOTION_DDOT":"0.0000000000000","TIME_SYSTEM":"UTC","CENTER_NAME":"EARTH","TLE_LINE1":"1 44966U 20001BE  22018.89004239 -.00000067  00000-0  14402-4 0  9999","SEMIMAJOR_AXIS":"6925.385","MEAN_ELEMENT_THEORY":"SGP4","GP_ID":"194152995","SITE":"AFETR","COUNTRY_CODE":"US","BSTAR":"0.00001440200000","TLE_LINE2":"2 44966  53.0539 248.8637 0001982  71.4808 288.6396 15.06388069112699","PERIAPSIS":"545.878","OBJECT_ID":"2020-001BE","ELEMENT_SET_NO":"999","RA_OF_ASC_NODE":"248.8637","LAUNCH_DATE":"2020-01-07","ECCENTRICITY":"0.00019820","NORAD_CAT_ID":"44966","CLASSIFICATION_TYPE":"U","FILE":"3276875"},{"MEAN_ANOMALY":"291.6909","DECAY_DATE":null,"OBJECT_NAME":"STARLINK-1089","MEAN_MOTION":"15.06386123","EPHEMERIS_TYPE":"0","OBJECT_TYPE":"PAYLOAD","APOAPSIS":"548.685","PERIOD":"95.593","ARG_OF_PERICENTER":"68.4300","MEAN_MOTION_DOT":"-0.00001429","INCLINATION":"53.0546","REV_AT_EPOCH":"11269","EPOCH":"2022-01-18T20:17:58.288128","TLE_LINE1":"1 44967U 20001BF  22018.84581352 -.00001429  00000-0 -77050-4 0  9993","RCS_SIZE":"LARGE","REF_FRAME":"TEME","TIME_SYSTEM":"UTC","MEAN_MOTION_DDOT":"0.0000000000000","CENTER_NAME":"EARTH","OBJECT_ID":"2020-001BF","ELEMENT_SET_NO":"999","BSTAR":"-0.00007705000000","TLE_LINE2":"2 44967  53.0546 249.0711 0002063  68.4300 291.6909 15.06386123112691","PERIAPSIS":"545.827","MEAN_ELEMENT_THEORY":"SGP4","SITE":"AFETR","GP_ID":"194153730","COUNTRY_CODE":"US","SEMIMAJOR_AXIS":"6925.391","FILE":"3276875","NORAD_CAT_ID":"44967","CLASSIFICATION_TYPE":"U","RA_OF_ASC_NODE":"249.0711","LAUNCH_DATE":"2020-01-07","ECCENTRICITY":"0.00020630"},{"SEMIMAJOR_AXIS":"6925.399","COUNTRY_CODE":"US","SITE":"AFETR","GP_ID":"194152500","MEAN_ELEMENT_THEORY":"SGP4","PERIAPSIS":"545.888","TLE_LINE2":"2 44968  53.0544 248.7817 0001987  65.1483 294.9712 15.06383557112701","BSTAR":"-0.00005242500000","ELEMENT_SET_NO":"999","OBJECT_ID":"2020-001BG","LAUNCH_DATE":"2020-01-07","ECCENTRICITY":"0.00019870","RA_OF_ASC_NODE":"248.7817","CLASSIFICATION_TYPE":"U","NORAD_CAT_ID":"44968","FILE":"3276875","EPOCH":"2022-01-18T21:48:12.319488","REV_AT_EPOCH":"11270","INCLINATION":"53.0544","MEAN_MOTION_DOT":"-0.00001062","PERIOD":"95.593","ARG_OF_PERICENTER":"65.1483","APOAPSIS":"548.640","OBJECT_TYPE":"PAYLOAD","MEAN_MOTION":"15.06383557","EPHEMERIS_TYPE":"0","OBJECT_NAME":"STARLINK-1090","MEAN_ANOMALY":"294.9712","DECAY_DATE":null,"MEAN_MOTION_DDOT":"0.0000000000000","CENTER_NAME":"EARTH","TIME_SYSTEM":"UTC","REF_FRAME":"TEME","RCS_SIZE":"LARGE","TLE_LINE1":"1 44968U 20001BG  22018.90847592 -.00001062  00000-0 -52425-4 0  9994"},{"ECCENTRICITY":"0.00020140","LAUNCH_DATE":"2020-01-07","RA_OF_ASC_NODE":"248.8136","CLASSIFICATION_TYPE":"U","NORAD_CAT_ID":"44969","FILE":"3276875","SEMIMAJOR_AXIS":"6925.376","COUNTRY_CODE":"US","GP_ID":"194152751","SITE":"AFETR","MEAN_ELEMENT_THEORY":"SGP4","PERIAPSIS":"545.846","TLE_LINE2":"2 44969  53.0541 248.8136 0002014  69.4297 290.6908 15.06391066112698","BSTAR":"-0.00014253000000","ELEMENT_SET_NO":"999","OBJECT_ID":"2020-001BH","TIME_SYSTEM":"UTC","MEAN_MOTION_DDOT":"0.0000000000000","CENTER_NAME":"EARTH","REF_FRAME":"TEME","RCS_SIZE":"LARGE","TLE_LINE1":"1 44969U 20001BH  22018.90109926 -.00002404  00000-0 -14253-3 0  9994","EPOCH":"2022-01-18T21:37:34.976064","REV_AT_EPOCH":"11269","INCLINATION":"53.0541","MEAN_MOTION_DOT":"-0.00002404","ARG_OF_PERICENTER":"69.4297","PERIOD":"95.593","APOAPSIS":"548.636","OBJECT_TYPE":"PAYLOAD","EPHEMERIS_TYPE":"0","MEAN_MOTION":"15.06391066","OBJECT_NAME":"STARLINK-1092","DECAY_DATE":null,"MEAN_ANOMALY":"290.6908"},{"NORAD_CAT_ID":"44970","CLASSIFICATION_TYPE":"U","FILE":"3276875","RA_OF_ASC_NODE":"248.9199","LAUNCH_DATE":"2020-01-07","ECCENTRICITY":"0.00021750","BSTAR":"0.00056437000000","PERIAPSIS":"545.894","TLE_LINE2":"2 44970  53.0534 248.9199 0002175  76.9547 283.1685 15.06339130112683","OBJECT_ID":"2020-001BJ","ELEMENT_SET_NO":"999","SEMIMAJOR_AXIS":"6925.535","GP_ID":"194153496","SITE":"AFETR","MEAN_ELEMENT_THEORY":"SGP4","COUNTRY_CODE":"US","TLE_LINE1":"1 44970U 20001BJ  22018.87899666  .00008121  00000-0  56437-3 0  9999","RCS_SIZE":"LARGE","TIME_SYSTEM":"UTC","MEAN_MOTION_DDOT":"0.0000000000000","CENTER_NAME":"EARTH","REF_FRAME":"TEME","MEAN_MOTION":"15.06339130","EPHEMERIS_TYPE":"0","OBJECT_NAME":"STARLINK-1093","OBJECT_TYPE":"PAYLOAD","DECAY_DATE":null,"MEAN_ANOMALY":"283.1685","REV_AT_EPOCH":"11268","EPOCH":"2022-01-18T21:05:45.311424","ARG_OF_PERICENTER":"76.9547","PERIOD":"95.596","APOAPSIS":"548.906","INCLINATION":"53.0534","MEAN_MOTION_DOT":"0.00008121"},{"COUNTRY_CODE":"US","SITE":"AFETR","GP_ID":"194153230","MEAN_ELEMENT_THEORY":"SGP4","SEMIMAJOR_AXIS":"6925.403","ELEMENT_SET_NO":"999","OBJECT_ID":"2020-001BL","PERIAPSIS":"545.827","TLE_LINE2":"2 44972  53.0536 248.7363 0002080  67.7386 292.3823 15.06382344112706","BSTAR":"-0.00009898000000","ECCENTRICITY":"0.00020800","LAUNCH_DATE":"2020-01-07","RA_OF_ASC_NODE":"248.7363","FILE":"3276875","CLASSIFICATION_TYPE":"U","NORAD_CAT_ID":"44972","INCLINATION":"53.0536","MEAN_MOTION_DOT":"-0.00001755","ARG_OF_PERICENTER":"67.7386","PERIOD":"95.593","APOAPSIS":"548.708","EPOCH":"2022-01-18T21:58:49.245600","REV_AT_EPOCH":"11270","MEAN_ANOMALY":"292.3823","DECAY_DATE":null,"OBJECT_TYPE":"PAYLOAD","EPHEMERIS_TYPE":"0","MEAN_MOTION":"15.06382344","OBJECT_NAME":"STARLINK-1107","TIME_SYSTEM":"UTC","MEAN_MOTION_DDOT":"0.0000000000000","CENTER_NAME":"EARTH","REF_FRAME":"TEME","RCS_SIZE":"LARGE","TLE_LINE1":"1 44972U 20001BL  22018.91584775 -.00001755  00000-0 -98980-4 0  9996"},{"SEMIMAJOR_AXIS":"6925.376","MEAN_ELEMENT_THEORY":"SGP4","GP_ID":"194152000","SITE":"AFETR","COUNTRY_CODE":"US","BSTAR":"0.00005190800000","TLE_LINE2":"2 44973  53.0549 248.8554 0001838  71.3606 288.7583 15.06390980112695","PERIAPSIS":"545.968","OBJECT_ID":"2020-001BM","ELEMENT_SET_NO":"999","RA_OF_ASC_NODE":"248.8554","LAUNCH_DATE":"2020-01-07","ECCENTRICITY":"0.00018380","NORAD_CAT_ID":"44973","CLASSIFICATION_TYPE":"U","FILE":"3276875","REV_AT_EPOCH":"11269","EPOCH":"2022-01-18T21:26:57.703488","APOAPSIS":"548.514","ARG_OF_PERICENTER":"71.3606","PERIOD":"95.593","MEAN_MOTION_DOT":"0.00000491","INCLINATION":"53.0549","OBJECT_NAME":"STARLINK-1115","EPHEMERIS_TYPE":"0","MEAN_MOTION":"15.06390980","OBJECT_TYPE":"PAYLOAD","DECAY_DATE":null,"MEAN_ANOMALY":"288.7583","RCS_SIZE":"LARGE","REF_FRAME":"TEME","CENTER_NAME":"EARTH","MEAN_MOTION_DDOT":"0.0000000000000","TIME_SYSTEM":"UTC","TLE_LINE1":"1 44973U 20001BM  22018.89372342  .00000491  00000-0  51908-4 0  9992"},{"FILE":"3276875","NORAD_CAT_ID":"45044","CLASSIFICATION_TYPE":"U","RA_OF_ASC_NODE":"209.2653","LAUNCH_DATE":"2020-01-29","ECCENTRICITY":"0.00022990","OBJECT_ID":"2020-006A","ELEMENT_SET_NO":"999","BSTAR":"0.00010373000000","PERIAPSIS":"545.615","TLE_LINE2":"2 45044  53.0540 209.2653 0002299  76.6060 283.5185 15.06402128109012","GP_ID":"194152507","SITE":"AFETR","MEAN_ELEMENT_THEORY":"SGP4","COUNTRY_CODE":"US","SEMIMAJOR_AXIS":"6925.342","TLE_LINE1":"1 45044U 20006A   22018.80157033  .00001264  00000-0  10373-3 0  9995","RCS_SIZE":"LARGE","TIME_SYSTEM":"UTC","MEAN_MOTION_DDOT":"0.0000000000000","CENTER_NAME":"EARTH","REF_FRAME":"TEME","DECAY_DATE":null,"MEAN_ANOMALY":"283.5185","EPHEMERIS_TYPE":"0","MEAN_MOTION":"15.06402128","OBJECT_NAME":"STARLINK-1132","OBJECT_TYPE":"PAYLOAD","ARG_OF_PERICENTER":"76.6060","PERIOD":"95.592","APOAPSIS":"548.799","INCLINATION":"53.0540","MEAN_MOTION_DOT":"0.00001264","REV_AT_EPOCH":"10901","EPOCH":"2022-01-18T19:14:15.676512"}];
